CCSDS_OMM_VERS = 2.0
CREATION_DATE  = 
ORIGINATOR     = 

OBJECT_NAME    = UNKNOWN
OBJECT_ID      = 
CENTER_NAME    = EARTH
REF_FRAME      = TEME
TIME_SYSTEM    = UTC
MEAN_ELEMENT_THEORY = SGP/SGP4

EPOCH          = 2026-03-17T10:15:07.131168
MEAN_MOTION    = 13.75282620
ECCENTRICITY   = .0026889
INCLINATION    = 99.2461
RA_OF_ASC_NODE = 300.4448
ARG_OF_PERICENTER = 5.2422
MEAN_ANOMALY   = 118.1978

EPHEMERIS_TYPE = 0
CLASSIFICATION_TYPE = U
NORAD_CAT_ID   = 85010
ELEMENT_SET_NO = 999
REV_AT_EPOCH   = 61693
BSTAR          = .10655E-2
MEAN_MOTION_DOT = .982E-5
MEAN_MOTION_DDOT = 0

CCSDS_OMM_VERS = 2.0
CREATION_DATE  = 
ORIGINATOR     = 

OBJECT_NAME    = UNKNOWN
OBJECT_ID      = 
CENTER_NAME    = EARTH
REF_FRAME      = TEME
TIME_SYSTEM    = UTC
MEAN_ELEMENT_THEORY = SGP/SGP4

EPOCH          = 2026-03-27T13:51:10.393632
MEAN_MOTION    = 14.62438477
ECCENTRICITY   = .0013885
INCLINATION    = 74.0503
RA_OF_ASC_NODE = 197.5582
ARG_OF_PERICENTER = 75.5520
MEAN_ANOMALY   = 284.7187

EPHEMERIS_TYPE = 0
CLASSIFICATION_TYPE = U
NORAD_CAT_ID   = 85015
ELEMENT_SET_NO = 999
REV_AT_EPOCH   = 65793
BSTAR          = .10243E-3
MEAN_MOTION_DOT = .489E-5
MEAN_MOTION_DDOT = 0

CCSDS_OMM_VERS = 2.0
CREATION_DATE  = 
ORIGINATOR     = 

OBJECT_NAME    = UNKNOWN
OBJECT_ID      = 
CENTER_NAME    = EARTH
REF_FRAME      = TEME
TIME_SYSTEM    = UTC
MEAN_ELEMENT_THEORY = SGP/SGP4

EPOCH          = 2026-03-27T08:23:52.129824
MEAN_MOTION    = 14.81184503
ECCENTRICITY   = .0001048
INCLINATION    = 99.8403
RA_OF_ASC_NODE = 129.8522
ARG_OF_PERICENTER = 131.6786
MEAN_ANOMALY   = 291.9678

EPHEMERIS_TYPE = 0
CLASSIFICATION_TYPE = U
NORAD_CAT_ID   = 85023
ELEMENT_SET_NO = 999
REV_AT_EPOCH   = 64428
BSTAR          = .3013E-2
MEAN_MOTION_DOT = .23451E-3
MEAN_MOTION_DDOT = 0

CCSDS_OMM_VERS = 2.0
CREATION_DATE  = 
ORIGINATOR     = 

OBJECT_NAME    = UNKNOWN
OBJECT_ID      = 
CENTER_NAME    = EARTH
REF_FRAME      = TEME
TIME_SYSTEM    = UTC
MEAN_ELEMENT_THEORY = SGP/SGP4

EPOCH          = 2026-03-26T08:32:01.361184
MEAN_MOTION    = 13.74293288
ECCENTRICITY   = .0169037
INCLINATION    = 66.0415
RA_OF_ASC_NODE = 207.7704
ARG_OF_PERICENTER = 134.7572
MEAN_ANOMALY   = 226.7391

EPHEMERIS_TYPE = 0
CLASSIFICATION_TYPE = U
NORAD_CAT_ID   = 85027
ELEMENT_SET_NO = 999
REV_AT_EPOCH   = 61885
BSTAR          = .20899E-3
MEAN_MOTION_DOT = .14E-5
MEAN_MOTION_DDOT = 0

CCSDS_OMM_VERS = 2.0
CREATION_DATE  = 
ORIGINATOR     = 

OBJECT_NAME    = UNKNOWN
OBJECT_ID      = 
CENTER_NAME    = EARTH
REF_FRAME      = TEME
TIME_SYSTEM    = UTC
MEAN_ELEMENT_THEORY = SGP/SGP4

EPOCH          = 2026-03-26T10:07:22.288800
MEAN_MOTION    = 13.47062838
ECCENTRICITY   = .011944
INCLINATION    = 102.1687
RA_OF_ASC_NODE = 77.6522
ARG_OF_PERICENTER = 140.4246
MEAN_ANOMALY   = 220.5672

EPHEMERIS_TYPE = 0
CLASSIFICATION_TYPE = U
NORAD_CAT_ID   = 85047
ELEMENT_SET_NO = 999
REV_AT_EPOCH   = 59060
BSTAR          = .17232E-1
MEAN_MOTION_DOT = .10888E-3
MEAN_MOTION_DDOT = 0

CCSDS_OMM_VERS = 2.0
CREATION_DATE  = 
ORIGINATOR     = 

OBJECT_NAME    = UNKNOWN
OBJECT_ID      = 
CENTER_NAME    = EARTH
REF_FRAME      = TEME
TIME_SYSTEM    = UTC
MEAN_ELEMENT_THEORY = SGP/SGP4

EPOCH          = 2026-03-25T22:58:34.334112
MEAN_MOTION    = 12.77810531
ECCENTRICITY   = .026793
INCLINATION    = 102.4053
RA_OF_ASC_NODE = 83.2605
ARG_OF_PERICENTER = 349.8152
MEAN_ANOMALY   = 66.6207

EPHEMERIS_TYPE = 0
CLASSIFICATION_TYPE = U
NORAD_CAT_ID   = 85061
ELEMENT_SET_NO = 999
REV_AT_EPOCH   = 56896
BSTAR          = .12501E-1
MEAN_MOTION_DOT = .3154E-4
MEAN_MOTION_DDOT = 0

CCSDS_OMM_VERS = 2.0
CREATION_DATE  = 
ORIGINATOR     = 

OBJECT_NAME    = UNKNOWN
OBJECT_ID      = 
CENTER_NAME    = EARTH
REF_FRAME      = TEME
TIME_SYSTEM    = UTC
MEAN_ELEMENT_THEORY = SGP/SGP4

EPOCH          = 2026-03-27T14:13:56.355168
MEAN_MOTION    = 14.40809886
ECCENTRICITY   = .0013594
INCLINATION    = 74.0475
RA_OF_ASC_NODE = 28.9206
ARG_OF_PERICENTER = 233.9710
MEAN_ANOMALY   = 305.6757

EPHEMERIS_TYPE = 0
CLASSIFICATION_TYPE = U
NORAD_CAT_ID   = 85100
ELEMENT_SET_NO = 999
REV_AT_EPOCH   = 64844
BSTAR          = .11068E-3
MEAN_MOTION_DOT = .328E-5
MEAN_MOTION_DDOT = 0

CCSDS_OMM_VERS = 2.0
CREATION_DATE  = 
ORIGINATOR     = 

OBJECT_NAME    = UNKNOWN
OBJECT_ID      = 
CENTER_NAME    = EARTH
REF_FRAME      = TEME
TIME_SYSTEM    = UTC
MEAN_ELEMENT_THEORY = SGP/SGP4

EPOCH          = 2026-03-27T13:21:37.133856
MEAN_MOTION    = 13.73056251
ECCENTRICITY   = .0010851
INCLINATION    = 100.0542
RA_OF_ASC_NODE = 197.5722
ARG_OF_PERICENTER = 107.8348
MEAN_ANOMALY   = 272.4659

EPHEMERIS_TYPE = 0
CLASSIFICATION_TYPE = U
NORAD_CAT_ID   = 85106
ELEMENT_SET_NO = 999
REV_AT_EPOCH   = 61745
BSTAR          = .69645E-3
MEAN_MOTION_DOT = .595E-5
MEAN_MOTION_DDOT = 0

CCSDS_OMM_VERS = 2.0
CREATION_DATE  = 
ORIGINATOR     = 

OBJECT_NAME    = UNKNOWN
OBJECT_ID      = 
CENTER_NAME    = EARTH
REF_FRAME      = TEME
TIME_SYSTEM    = UTC
MEAN_ELEMENT_THEORY = SGP/SGP4

EPOCH          = 2026-03-27T14:34:01.581600
MEAN_MOTION    = 14.83931558
ECCENTRICITY   = .0007327
INCLINATION    = 98.3986
RA_OF_ASC_NODE = 320.6804
ARG_OF_PERICENTER = 152.7607
MEAN_ANOMALY   = 207.3991

EPHEMERIS_TYPE = 0
CLASSIFICATION_TYPE = U
NORAD_CAT_ID   = 85151
ELEMENT_SET_NO = 999
REV_AT_EPOCH   = 49505
BSTAR          = .2293E-2
MEAN_MOTION_DOT = .19054E-3
MEAN_MOTION_DDOT = 0

CCSDS_OMM_VERS = 2.0
CREATION_DATE  = 
ORIGINATOR     = 

OBJECT_NAME    = UNKNOWN
OBJECT_ID      = 
CENTER_NAME    = EARTH
REF_FRAME      = TEME
TIME_SYSTEM    = UTC
MEAN_ELEMENT_THEORY = SGP/SGP4

EPOCH          = 2026-03-25T15:24:14.281344
MEAN_MOTION    = 13.71681479
ECCENTRICITY   = .0215613
INCLINATION    = 99.8641
RA_OF_ASC_NODE = 233.4764
ARG_OF_PERICENTER = 51.3597
MEAN_ANOMALY   = 11.4973

EPHEMERIS_TYPE = 0
CLASSIFICATION_TYPE = U
NORAD_CAT_ID   = 85210
ELEMENT_SET_NO = 999
REV_AT_EPOCH   = 61626
BSTAR          = .28817E-3
MEAN_MOTION_DOT = .261E-5
MEAN_MOTION_DDOT = 0

CCSDS_OMM_VERS = 2.0
CREATION_DATE  = 
ORIGINATOR     = 

OBJECT_NAME    = UNKNOWN
OBJECT_ID      = 
CENTER_NAME    = EARTH
REF_FRAME      = TEME
TIME_SYSTEM    = UTC
MEAN_ELEMENT_THEORY = SGP/SGP4

EPOCH          = 2026-03-27T04:54:43.247808
MEAN_MOTION    = 14.37763318
ECCENTRICITY   = .0207372
INCLINATION    = 98.0222
RA_OF_ASC_NODE = 178.7757
ARG_OF_PERICENTER = 172.2324
MEAN_ANOMALY   = 188.2161

EPHEMERIS_TYPE = 0
CLASSIFICATION_TYPE = U
NORAD_CAT_ID   = 85217
ELEMENT_SET_NO = 999
REV_AT_EPOCH   = 64286
BSTAR          = .84704E-3
MEAN_MOTION_DOT = .3226E-4
MEAN_MOTION_DDOT = 0

CCSDS_OMM_VERS = 2.0
CREATION_DATE  = 
ORIGINATOR     = 

OBJECT_NAME    = UNKNOWN
OBJECT_ID      = 
CENTER_NAME    = EARTH
REF_FRAME      = TEME
TIME_SYSTEM    = UTC
MEAN_ELEMENT_THEORY = SGP/SGP4

EPOCH          = 2026-03-25T14:18:05.166432
MEAN_MOTION    = 14.02416885
ECCENTRICITY   = .0516473
INCLINATION    = 65.5328
RA_OF_ASC_NODE = 304.6752
ARG_OF_PERICENTER = 340.8747
MEAN_ANOMALY   = 17.3543

EPHEMERIS_TYPE = 0
CLASSIFICATION_TYPE = U
NORAD_CAT_ID   = 85237
ELEMENT_SET_NO = 999
REV_AT_EPOCH   = 62276
BSTAR          = .69292E-3
MEAN_MOTION_DOT = .342E-4
MEAN_MOTION_DDOT = 0

