UNKNOWN                 
1 85010U          26076.42716587  .00000982  00000+0  10655-2 0  9992
2 85010  99.2461 300.4448 0026889   5.2422 118.1978 13.75282620616934
UNKNOWN                 
1 85015U          26086.57720363  .00000489  00000+0  10243-3 0  9997
2 85015  74.0503 197.5582 0013885  75.5520 284.7187 14.62438477657939
UNKNOWN                 
1 85023U          26086.34990891  .00023451  00000+0  30130-2 0  9996
2 85023  99.8403 129.8522 0001048 131.6786 291.9678 14.81184503644288
UNKNOWN                 
1 85027U          26085.35557131  .00000140  00000+0  20899-3 0  9998
2 85027  66.0415 207.7704 0169037 134.7572 226.7391 13.74293288618853
UNKNOWN                 
1 85047U          26085.42178575  .00010888  00000+0  17232-1 0  9994
2 85047 102.1687  77.6522 0119440 140.4246 220.5672 13.47062838590606
UNKNOWN                 
1 85061U          26084.95734183  .00003154  00000+0  12501-1 0  9992
2 85061 102.4053  83.2605 0267930 349.8152  66.6207 12.77810531568966
UNKNOWN                 
1 85100U          26086.59301337  .00000328  00000+0  11068-3 0  9998
2 85100  74.0475  28.9206 0013594 233.9710 305.6757 14.40809886648444
UNKNOWN                 
1 85106U          26086.55667979  .00000595  00000+0  69645-3 0  9997
2 85106 100.0542 197.5722 0010851 107.8348 272.4659 13.73056251617454
UNKNOWN                 
1 85151U          26086.60696275  .00019054  00000+0  22930-2 0  9999
2 85151  98.3986 320.6804 0007327 152.7607 207.3991 14.83931558495056
UNKNOWN                 
1 85210U          26084.64183196  .00000261  00000+0  28817-3 0  9991
2 85210  99.8641 233.4764 0215613  51.3597  11.4973 13.71681479616265
UNKNOWN                 
1 85217U          26086.20466722  .00003226  00000+0  84704-3 0  9992
2 85217  98.0222 178.7757 0207372 172.2324 188.2161 14.37763318642868
UNKNOWN                 
1 85237U          26084.59589313  .00003420  00000+0  69292-3 0  9997
2 85237  65.5328 304.6752 0516473 340.8747  17.3543 14.02416885622767
